TY-2 (XIAOXIANG 2)
1 43155U 18008A   22121.61509943  .00010512  00000-0  57014-3 0  9999
2 43155  97.3573 181.5308 0014944 311.2316 194.0053 15.14651166236187
TY-6 (QUANTUTONG 1)
1 43158U 18008D   22121.16361139  .00009194  00000-0  51663-3 0  9993
2 43158  97.3583 179.0290 0011508 317.5083 102.6529 15.13462290235950
DIWATA-2B (PO-101)
1 43678U 18084H   22121.37372236  .00001087  00000-0  11267-3 0  9996
2 43678  97.9622 254.1116 0011288  81.6178 278.6348 14.92073592190837
ESHAIL-2
1 43700U 18090A   22121.51083117  .00000145  00000-0  00000-0 0  9996
2 43700   0.0095 200.1451 0002387 231.2095 357.7489  1.00274093 12557
FACSAT-1
1 43721U 18096C   22121.51086986  .00029223  00000-0  87653-3 0  9992
2 43721  97.3509 201.4382 0014423 217.3267 198.7558 15.34324218190774
INNOSAT-2
1 43738U 18096V   22121.51841615  .00067259  00000-0  14304-2 0  9991
2 43738  97.3673 209.5375 0016722 207.1646 209.9163 15.44598854191258
REAKTOR HELLO WORLD
1 43743U 18096AA  22121.21825833  .00017096  00000-0  54165-3 0  9992
2 43743  97.3540 201.3258 0014873 223.4988 136.5082 15.32685651190727
HIBER-1
1 43744U 18096AB  22121.47086467  .00036300  00000-0  96208-3 0  9996
2 43744  97.3587 204.1127 0013792 216.2628 143.7683 15.38154198190905
K2SAT
1 43761U 18099D   22121.44344911  .00001951  00000-0  17984-3 0  9994
2 43761  97.6241 189.4217 0015476  68.5478 291.7435 14.95738332185993
AISTECHSAT-2
1 43768U 18099L   22121.13593087  .00003795  00000-0  34674-3 0  9990
2 43768  97.6204 187.6915 0012917  71.2059 289.0562 14.95550821185612
ASTROCAST
1 43798U 18099AS  22121.42384831  .00005521  00000-0  48079-3 0  9993
2 43798  97.6276 190.8056 0013282  53.0385 307.2051 14.97241026186075
SNUSAT-2
1 43782U 18099AA  22121.43103563  .00002971  00000-0  26699-3 0  9998
2 43782  97.6236 189.4512 0013627  62.4740 297.7864 14.96362862186006
ITASAT-1
1 43786U 18099AE  22121.44372264  .00003188  00000-0  28597-3 0  9999
2 43786  97.6254 189.9072 0015955  68.7317 291.5606 14.96355456186020
AL-FARABI-2
1 43805U 18099AZ  22121.42790434  .00006081  00000-0  52913-3 0  9996
2 43805  97.6255 190.0016 0016243  68.0590 292.2336 14.97199973186064
IRVINE02
1 43789U 18099AH  22121.44011729  .00004818  00000-0  41795-3 0  9994
2 43789  97.6276 190.9112 0016210  63.7981 296.4905 14.97426647185781
EAGLET-1
1 43790U 18099AJ  22121.41194411  .00003500  00000-0  31178-3 0  9994
2 43790  97.6259 190.3986 0014896  73.0336 287.2517 14.96578511185754
ESEO
1 43792U 18099AL  22121.46365257  .00001853  00000-0  16959-3 0  9998
2 43792  97.6209 189.7331 0014584  70.2307 290.0485 14.96089611185808
CSIM-FD
1 43793U 18099AM  22121.50422391  .00005682  00000-0  48555-3 0  9998
2 43793  97.6273 190.9258 0013410  64.4935 295.7673 14.97964356185856
HIBER-2
1 43774U 18099S   22121.45324748  .00005384  00000-0  47455-3 0  9995
2 43774  97.6294 190.1627 0013346  67.3524 292.9108 14.96783225186007
SUOMI-100
1 43804U 18099AY  22121.15688969  .00003497  00000-0  31033-3 0  9992
2 43804  97.6223 189.3033 0016366  69.1667 291.1306 14.96714372186005
MINXSS-2
1 43758U 18099A   22121.19873020  .00004998  00000-0  43745-3 0  9998
2 43758  97.6263 190.2583 0016506  68.2182 292.0794 14.97053805186038
CHOMPTT
1 43855U 18104G   22121.33109928  .00013072  00000-0  49386-3 0  9998
2 43855  85.0345  82.5428 0018383  58.9331 301.3715 15.26702101187532
FOX-1CLIFF (AO-95)
1 43770U 18099N   22121.44532156  .00003811  00000-0  34253-3 0  9999
2 43770  97.6229 189.0168 0015362  75.9342 284.3586 14.96172115185982
MOVE-II
1 43780U 18099Y   22121.44269267  .00006234  00000-0  54146-3 0  9995
2 43780  97.6264 190.0277 0013904  72.0158 288.2578 14.97291086186028
JY1SAT (JO-97)
1 43803U 18099AX  22121.14190107  .00005052  00000-0  44510-3 0  9995
2 43803  97.6228 189.3569 0016437  70.0616 290.2375 14.96793516185997
CORVUS-BC4
1 43767U 18099K   22121.49637446  .00002419  00000-0  22282-3 0  9990
2 43767  97.6191 188.0666 0012820  67.7032 292.5547 14.95568094185958
UWE-4
1 43880U 18111E   22121.50943270  .00003579  00000-0  30862-3 0  9999
2 43880  97.6729  28.6430 0013548 113.3796 246.8852 14.97858160182677
LUME-1
1 43908U 18111AJ  22121.41856882  .00012720  00000-0  44633-3 0  9991
2 43908  97.1978  10.7222 0017149 238.1757 121.7814 15.29414264186205
ORIGAMISAT-1
1 43933U 19003B   22120.02431530  .22554430  23426-5  32043-2 0  9991
2 43933  97.1116 158.9235 0014855 252.7494 107.2177 16.34564232182763
MICRODRAGON
1 43935U 19003D   22121.58782841  .00008006  00000-0  32040-3 0  9994
2 43935  97.1410 153.8345 0016154 347.2123  12.8704 15.25205621182558
NEXUS
1 43937U 19003F   22121.60650865  .00015012  00000-0  52399-3 0  9993
2 43937  97.1348 156.8067 0019440 325.0251  34.9712 15.29504569182811
AOBA VELOX-IV
1 43940U 19003J   22121.58229387  .00034028  00000-0  10096-2 0  9990
2 43940  97.1322 158.8960 0016920 316.0975  43.8924 15.34596165182930
CZ-4B R/B
1 43656U 18081B   22121.58500187  .00000216  00000-0  83759-4 0  9999
2 43656  99.3891 251.6459 0207482 278.8237  78.9502 14.30545074183654
MYSAT-1
1 44045U 18092F   22121.54586057  .00048525  00000-0  83288-3 0  9991
2 44045  51.6330 306.0621 0009279 278.6953  81.2985 15.50633193180583
AIS & APRS & ARIS & R/B
1 44104U 19018AC  22121.49605701  .00009168  00000-0  26381-3 0  9999
2 44104  97.3961 204.4766 0051601 302.0134  57.6101 15.34660705172394
ASTROCAST-0.2
1 44083U 19018F   22121.15806516  .00008695  00000-0  34257-3 0  9990
2 44083  97.3265 180.9570 0009923 298.1860  61.8375 15.25789509171279
AISTECHSAT-3
1 44103U 19018AB  22121.11428837  .00011363  00000-0  43497-3 0  9997
2 44103  97.3125 181.3166 0010776 306.3293  53.6950 15.26664276171422
COSMOS 2504 [i]
1 40555U 15020D   22121.60368220  .00000326  00000-0  11375-3 0  9993
2 40555  82.5151 314.5967 0616316  46.0754 318.9585 13.59542097345216
COSMOS 2519 [i]
1 44109U 19018AF  22121.48619845  .00018471  00000-0  47659-3 0  9995
2 44109  97.3964 205.2028 0047765 296.4774  63.1575 15.38023473172233
ARMADILLO-1
1 44352U 19036P   22121.25775320  .00142647 -16923-5  97772-3 0  9992
2 44352  28.5241  94.2055 0177154 242.3422 115.9098 15.54891281157865
PSAT2 (NO-104)
1 44354U 19036R   22121.24802737  .00065015 -51079-5  64531-3 0  9997
2 44354  28.5245 144.0674 0251870 161.0962 199.9181 15.33531252157418
ZACUBE-2
1 43907U 18111AH  22121.28375073  .00011905  00000-0  45097-3 0  9992
2 43907  97.1976   9.2664 0018437 244.6357 247.1170 15.26890920186093
METEOR-M2_2
1 44387U 19038A   22121.48682054  .00000029  00000-0  32110-4 0  9994
2 44387  98.7181  82.6532 0002474  63.6273 296.5157 14.23707334146721
VDNH-80
1 44392U 19038G   22121.59504829  .00013004  00000-0  67013-3 0  9991
2 44392  97.6308  91.2131 0017816 297.2282 172.6496 15.16376260155743
AMGU-1
1 44394U 19038J   22121.59697453  .00015068  00000-0  77204-3 0  9994
2 44394  97.6257  91.0333 0018261 300.2472  59.6953 15.16536227155935
SOCRAT
1 44404U 19038U   22121.45243148  .00012661  00000-0  65294-3 0  9991
2 44404  97.6316  90.5640 0018149 300.3496  59.5941 15.16352317155897
LUCKY-7
1 44406U 19038W   22121.37127210  .00008406  00000-0  45161-3 0  9998
2 44406  97.6354  90.1423 0021043 295.5569  64.3488 15.14974660155832
MOMENTUS-X1
1 44408U 19038Y   22121.48946714  .00004618  00000-0  25825-3 0  9996
2 44408  97.6312  89.2955 0021059 300.0474  59.8668 15.13798252155830
JAISAT-1
1 44419U 19038F   22121.47084870  .00011870  00000-0  60949-3 0  9997
2 44419  97.6326  91.2541 0017631 297.2773  62.6664 15.16530200155930
D STAR ONE (EXOCONNECT)
1 44410U 19038AA  22121.49182795  .00017436  00000-0  84466-3 0  9999
2 44410  97.6270  91.3243 0016746 294.9403  65.0090 15.18489423155964
D STAR ONE (LIGHTSAT)
1 44393U 19038H   22121.45555474  .00011769  00000-0  60696-3 0  9995
2 44393  97.6323  90.9486 0017953 298.1652  61.7766 15.16373001155910
MOVE-IIB
1 44398U 19038N   22121.62320924  .00019102  00000-0  95108-3 0  9994
2 44398  97.6199  90.5994 0020293 294.2028  65.7103 15.17453906155936
LIGHTSAIL-2
1 44420U 19036AC  22121.54988343  .00076032  00000-0  11271-1 0  9996
2 44420  24.0026  78.4337 0018115 153.4983 206.6442 14.73510044150145
SONATE
1 44400U 19038Q   22121.54441069  .00008421  00000-0  46234-3 0  9991
2 44400  97.6329  89.8678 0022412 297.9407  61.9551 15.14173209155837
2018-102F
1 43836U 18102F   22121.32978916  .00007750  00000-0  46242-3 0  9999
2 43836  97.5100 198.5653 0014213 352.1586  94.6068 15.11327500187202
2018-102G
1 43837U 18102G   22121.34359395  .00008439  00000-0  49825-3 0  9991
2 43837  97.5087 198.9800 0014099 354.4202  70.0816 15.11686897187247
MERIDIAN-4
1 37398U 11018A   22121.11213350  .00000661  00000-0  10567-2 0  9999
2 37398  62.7882 293.5209 7287437 253.6859  65.2316  2.00599377 80521
MERIDIAN-6
1 38995U 12063A   22121.60443752 -.00000130  00000-0  00000-0 0  9990
2 38995  65.2953 171.3445 6614671 248.7578 346.7537  2.00519203 69308
MERIDIAN-7
1 40296U 14069A   22121.26533124 -.00000222  00000-0  00000-0 0  9992
2 40296  63.4289  36.6793 7139147 273.8093 349.4925  2.00615111 54971
MERIDIAN-8
1 44453U 19046A   22120.98485308  .00000158  00000-0  00000-0 0  9996
2 44453  62.6588 218.7445 6802131 274.6154 138.1714  2.00594521 20171
MERIDIAN-10
1 52145U 22030A   22108.10209095 -.00006891  70516-4  52658-1 0  9998
2 52145  62.9062 320.5502 8256794 260.2774 288.2060  1.99077553   529
TAURUS-1
1 44530U 19059C   22121.53766282  .00002886  00000-0  80775-3 0  9991
2 44530  98.5432 219.6120 0012257 257.7799 102.2094 14.46842726139064
FLORIPASAT-1
1 44885U 19093G   22121.45318504  .00002828  00000-0  35440-3 0  9998
2 44885  97.8966 202.4965 0014064 351.1743   8.9235 14.82943172127887
OPS-SAT
1 44878U 19092F   22121.51030417  .00012101  00000-0  57611-3 0  9999
2 44878  97.4799 305.8923 0013735 140.2035 220.0209 15.19214252131060
DUCHIFAT-3
1 44854U 19089C   22121.43739294  .00006000  00000-0  47008-3 0  9999
2 44854  36.9672  19.0022 0007719 211.6950 317.4621 15.00718881130863
CAS-6 (TO-108)
1 44881U 19093C   22121.50924881  .00000875  00000-0  11768-3 0  9998
2 44881  97.8934 201.3918 0014694 344.6383  15.4388 14.81664563127829
